{
  "type": "FeatureCollection",
  "features": [
    {
      "type": "Feature",
      "properties": { "name": "gulf-of-finland", "label": "Gulf of Finland shadow-fleet lane" },
      "geometry": { "type": "Polygon", "coordinates": [[[22.5, 59.2], [29.5, 59.2], [29.5, 60.5], [22.5, 60.5], [22.5, 59.2]]] }
    },
    {
      "type": "Feature",
      "properties": { "name": "kerch-azov", "label": "Kerch Strait and Sea of Azov approaches" },
      "geometry": { "type": "Polygon", "coordinates": [[[35.5, 44.5], [37.5, 44.5], [37.5, 46.0], [35.5, 46.0], [35.5, 44.5]]] }
    },
    {
      "type": "Feature",
      "properties": { "name": "nw-black-sea", "label": "Northwest Black Sea" },
      "geometry": { "type": "Polygon", "coordinates": [[[29.5, 44.5], [32.5, 44.5], [32.5, 46.5], [29.5, 46.5], [29.5, 44.5]]] }
    },
    {
      "type": "Feature",
      "properties": { "name": "laconian-gulf", "label": "Laconian Gulf STS area" },
      "geometry": { "type": "Polygon", "coordinates": [[[22.2, 36.2], [23.3, 36.2], [23.3, 36.9], [22.2, 36.9], [22.2, 36.2]]] }
    },
    {
      "type": "Feature",
      "properties": { "name": "hormuz", "label": "Strait of Hormuz" },
      "geometry": { "type": "Polygon", "coordinates": [[[55.0, 25.5], [57.5, 25.5], [57.5, 27.5], [55.0, 27.5], [55.0, 25.5]]] }
    },
    {
      "type": "Feature",
      "properties": { "name": "gulf-of-guinea-hra", "label": "Gulf of Guinea high risk area" },
      "geometry": { "type": "Polygon", "coordinates": [[[-2.0, 0.0], [9.0, 0.0], [9.0, 6.5], [-2.0, 6.5], [-2.0, 0.0]]] }
    },
    {
      "type": "Feature",
      "properties": { "name": "taiwan-strait", "label": "Taiwan Strait" },
      "geometry": { "type": "Polygon", "coordinates": [[[117.5, 22.5], [121.5, 22.5], [121.5, 25.5], [117.5, 25.5], [117.5, 22.5]]] }
    },
    {
      "type": "Feature",
      "properties": { "name": "malacca", "label": "Malacca and Singapore Strait approaches" },
      "geometry": { "type": "Polygon", "coordinates": [[[98.0, 1.0], [104.5, 1.0], [104.5, 6.0], [98.0, 6.0], [98.0, 1.0]]] }
    }
  ]
}
